NORAD_CAT_ID,OBJECT_NAME,OBJECT_TYPE,EPOCH,MEAN_MOTION,ECCENTRICITY,INCLINATION,RA_OF_ASC_NODE,ARG_OF_PERICENTER,MEAN_ANOMALY,BSTAR,MEAN_MOTION_DOT,MEAN_MOTION_DDOT,TLE_LINE0,TLE_LINE1,TLE_LINE2,SEMIMAJOR_AXIS,PERIOD,APOGEE,PERIGEE,DECAYED
55636.0,STARLINK-5218,PAYLOAD,2023-05-08 04:47:32,14.98339158,0.0005422,69.9975,297.7494,267.3448,92.7091,0.00026868,3.115e-05,0.0,0 STARLINK-5218,1 55636U 23021J   23128.19968204  .00003115  00000-0  26868-3 0  9991,2 55636  69.9975 297.7494 0005422 267.3448  92.7091 14.98339158 12744,6950.165,96.106,575.798,568.261,0.0
55636.0,STARLINK-5218,PAYLOAD,2023-05-08 12:48:13,14.98331801,0.0005564,69.9989,296.9079,267.7027,92.3495,4.4428e-05,4.37e-06,0.0,0 STARLINK-5218,1 55636U 23021J   23128.53348950  .00000437  00000-0  44428-4 0  9996,2 55636  69.9989 296.9079 0005564 267.7027  92.3495 14.98331801 12799,6950.187,96.107,575.919,568.185,0.0
55636.0,STARLINK-5218,PAYLOAD,2023-05-08 20:48:54,14.98323202,0.000472,69.9996,296.0668,269.7587,90.3032,-9.7141e-05,-1.252e-05,0.0,0 STARLINK-5218,1 55636U 23021J   23128.86730127 -.00001252  00000-0 -97141-4 0  9991,2 55636  69.9996 296.0668 0004720 269.7587  90.3032 14.98323202 12845,6950.214,96.107,575.359,568.798,0.0
55636.0,STARLINK-5218,PAYLOAD,2023-05-09 14:26:23,14.98324286,0.0004767,69.9993,294.2139,270.0414,90.0199,1.4635e-05,8.1e-07,0.0,0 STARLINK-5218,1 55636U 23021J   23129.60165924  .00000081  00000-0  14635-4 0  9995,2 55636  69.9993 294.2139 0004767 270.0414  90.0199 14.98324286 13250,6950.211,96.107,575.389,568.762,0.0
55636.0,STARLINK-5218,PAYLOAD,2023-05-10 12:52:15,14.98366921,0.0004872,69.9991,291.8568,271.1787,88.8814,-0.00067224,-8.114e-05,0.0,0 STARLINK-5218,1 55636U 23021J   23130.53628837 -.00008114  00000-0 -67224-3 0  9994,2 55636  69.9991 291.8568 0004872 271.1787  88.8814 14.98366921 13395,6950.079,96.105,575.33,568.558,0.0
55636.0,STARLINK-5218,PAYLOAD,2023-05-10 17:40:39,14.98327068,0.0004762,69.9991,291.352,268.6432,91.4181,0.00014316,1.615e-05,0.0,0 STARLINK-5218,1 55636U 23021J   23130.73657281  .00001615  00000-0  14316-3 0  9992,2 55636  69.9991 291.3520 0004762 268.6432  91.4181 14.98327068 13121,6950.202,96.107,575.377,568.757,0.0
55636.0,STARLINK-5218,PAYLOAD,2023-05-10 19:16:47,14.98327682,0.000475,69.9991,291.1836,268.6216,91.4398,0.00014752,1.667e-05,0.0,0 STARLINK-5218,1 55636U 23021J   23130.80333248  .00001667  00000-0  14752-3 0  9995,2 55636  69.9991 291.1836 0004750 268.6216  91.4398 14.98327682 13432,6950.2,96.107,575.366,568.764,0.0
55636.0,STARLINK-5218,PAYLOAD,2023-05-11 11:18:08,14.98330485,0.0004641,69.9995,289.5003,268.2347,91.8281,2.0421e-05,1.5e-06,0.0,0 STARLINK-5218,1 55636U 23021J   23131.47093526  .00000150  00000-0  20421-4 0  9998,2 55636  69.9995 289.5003 0004641 268.2347  91.8281 14.98330485 13534,6950.191,96.107,575.282,568.831,0.0
55636.0,STARLINK-5218,PAYLOAD,2023-05-11 16:06:32,14.98331089,0.0004636,69.9996,288.9953,268.1508,91.912,2.5038e-05,2.06e-06,0.0,0 STARLINK-5218,1 55636U 23021J   23131.67121462  .00000206  00000-0  25038-4 0  9992,2 55636  69.9996 288.9953 0004636 268.1508  91.9120 14.98331089 13561,6950.19,96.107,575.277,568.832,0.0
55636.0,STARLINK-5218,PAYLOAD,2023-05-12 03:19:29,14.9832747,0.0004477,70.0002,287.8182,266.341,93.7238,7.5128e-06,-4e-08,0.0,0 STARLINK-5218,1 55636U 23021J   23132.13853694 -.00000004  00000-0  75128-5 0  9996,2 55636  70.0002 287.8182 0004477 266.3410  93.7238 14.98327470 13333,6950.201,96.107,575.177,568.954,0.0
55636.0,STARLINK-5218,PAYLOAD,2023-05-12 19:20:50,14.98329629,0.0004474,70.0001,286.1342,268.5083,91.5563,-4.2647e-06,-1.44e-06,0.0,0 STARLINK-5218,1 55636U 23021J   23132.80613625 -.00000144  00000-0 -42647-5 0  9994,2 55636  70.0001 286.1342 0004474 268.5083  91.5563 14.98329629 13738,6950.194,96.107,575.169,568.95,0.0
55636.0,STARLINK-5218,PAYLOAD,2023-05-13 03:21:29,14.98350247,0.0004522,70.0005,285.2926,272.2536,87.8105,-0.00034646,-4.227e-05,0.0,0 STARLINK-5218,1 55636U 23021J   23133.13992989 -.00004227  00000-0 -34646-3 0  9998,2 55636  70.0005 285.2926 0004522 272.2536  87.8105 14.98350247 13481,6950.13,96.106,575.138,568.852,0.0
55636.0,STARLINK-5218,PAYLOAD,2023-05-13 12:58:18,14.98329463,0.000461,69.9999,284.2827,270.8682,89.1949,-2.8331e-05,-4.31e-06,0.0,0 STARLINK-5218,1 55636U 23021J   23133.54049669 -.00000431  00000-0 -28331-4 0  9999,2 55636  69.9999 284.2827 0004610 270.8682  89.1949 14.98329463 13840,6950.195,96.107,575.264,568.856,0.0
55636.0,STARLINK-5218,PAYLOAD,2023-05-13 14:34:26,14.98328886,0.0004605,70.0003,284.1146,268.6739,91.3893,-4.6933e-06,-1.49e-06,0.0,0 STARLINK-5218,1 55636U 23021J   23133.60725619 -.00000149  00000-0 -46933-5 0  9997,2 55636  70.0003 284.1146 0004605 268.6739  91.3893 14.98328886 13553,6950.196,96.107,575.262,568.861,0.0
55636.0,STARLINK-5218,PAYLOAD,2023-05-13 19:22:51,14.98318548,0.000444,70.0001,283.6096,266.8707,93.1944,0.00021119,2.427e-05,0.0,0 STARLINK-5218,1 55636U 23021J   23133.80753750  .00002427  00000-0  21119-3 0  9992,2 55636  70.0001 283.6096 0004440 266.8707  93.1944 14.98318548 13888,6950.228,96.108,575.179,569.007,0.0
55636.0,STARLINK-5218,PAYLOAD,2023-05-14 13:00:19,14.98327568,0.000459,69.9999,281.7579,270.233,89.8303,2.333e-05,1.85e-06,0.0,0 STARLINK-5218,1 55636U 23021J   23134.54189681  .00000185  00000-0  23330-4 0  9997,2 55636  69.9999 281.7579 0004590 270.2330  89.8303 14.98327568 13998,6950.2,96.107,575.256,568.875,0.0
55636.0,STARLINK-5218,PAYLOAD,2023-05-14 19:24:52,14.98329203,0.0004637,69.9999,281.0843,269.6388,90.424,1.8725e-05,1.3e-06,0.0,0 STARLINK-5218,1 55636U 23021J   23134.80893576  .00000130  00000-0  18725-4 0  9993,2 55636  69.9999 281.0843 0004637 269.6388  90.4240 14.98329203 13730,6950.195,96.107,575.283,568.838,0.0
55636.0,STARLINK-5218,PAYLOAD,2023-05-15 13:02:20,14.98328714,0.0004683,69.9995,279.2316,268.838,91.2242,4.9259e-05,4.95e-06,0.0,0 STARLINK-5218,1 55636U 23021J   23135.54329503  .00000495  00000-0  49259-4 0  9999,2 55636  69.9995 279.2316 0004683 268.8380  91.2242 14.98328714 14147,6950.197,96.107,575.317,568.807,0.0
55636.0,STARLINK-5218,PAYLOAD,2023-05-15 16:14:36,14.98332262,0.0004698,69.9996,278.8954,269.2511,90.811,2.834e-05,2.45e-06,0.0,0 STARLINK-5218,1 55636U 23021J   23135.67681347  .00000245  00000-0  28340-4 0  9991,2 55636  69.9996 278.8954 0004698 269.2511  90.8110 14.98332262 14162,6950.186,96.107,575.316,568.786,0.0
55636.0,STARLINK-5218,PAYLOAD,2023-05-16 13:04:21,14.98328289,0.0004728,69.9996,276.7074,268.8373,91.2244,1.3386e-05,6.6e-07,0.0,0 STARLINK-5218,1 55636U 23021J   23136.54469647  .00000066  00000-0  13386-4 0  9990,2 55636  69.9996 276.7074 0004728 268.8373  91.2244 14.98328289 13994,6950.198,96.107,575.349,568.777,0.0
55636.0,STARLINK-5218,PAYLOAD,2023-05-16 16:16:37,14.98331877,0.0004811,69.9995,276.3708,269.2456,90.8152,1.1444e-05,4.3e-07,0.0,0 STARLINK-5218,1 55636U 23021J   23136.67821421  .00000043  00000-0  11444-4 0  9994,2 55636  69.9995 276.3708 0004811 269.2456  90.8152 14.98331877 14310,6950.187,96.107,575.396,568.708,0.0
55636.0,STARLINK-5218,PAYLOAD,2023-05-17 17:54:46,14.98332738,0.0004647,69.9999,273.6782,268.0087,92.054,3.0226e-05,2.67e-06,0.0,0 STARLINK-5218,1 55636U 23021J   23137.74637214  .00000267  00000-0  30226-4 0  9995,2 55636  69.9999 273.6782 0004647 268.0087  92.0540 14.98332738 14176,6950.184,96.107,575.279,568.82,0.0
55636.0,STARLINK-5218,PAYLOAD,2023-05-17 19:30:54,14.98333378,0.0004696,69.9998,273.5099,268.008,92.0541,3.3373e-05,3.05e-06,0.0,0 STARLINK-5218,1 55636U 23021J   23137.81313144  .00000305  00000-0  33373-4 0  9995,2 55636  69.9998 273.5099 0004696 268.0080  92.0541 14.98333378 14488,6950.182,96.107,575.311,568.784,0.0
55636.0,STARLINK-5218,PAYLOAD,2023-05-18 13:08:23,14.98328564,0.0004566,70.0003,271.6581,268.7535,91.3101,-5.5944e-06,-1.6e-06,0.0,0 STARLINK-5218,1 55636U 23021J   23138.54749571 -.00000160  00000-0 -55944-5 0  9993,2 55636  70.0003 271.6581 0004566 268.7535  91.3101 14.98328564 14598,6950.197,96.107,575.236,568.889,0.0
55636.0,STARLINK-5218,PAYLOAD,2023-05-19 11:34:16,14.98331391,0.0004655,70.0002,269.3017,270.3131,89.7495,-1.2169e-05,-2.38e-06,0.0,0 STARLINK-5218,1 55636U 23021J   23139.48213420 -.00000238  00000-0 -12169-4 0  9993,2 55636  70.0002 269.3017 0004655 270.3131  89.7495 14.98331391 14730,6950.189,96.107,575.289,568.818,0.0
55636.0,STARLINK-5218,PAYLOAD,2023-05-20 01:59:28,14.98330935,0.0004661,70.0004,267.7866,270.6494,89.4131,1.3967e-05,7.3e-07,0.0,0 STARLINK-5218,1 55636U 23021J   23140.08297318  .00000073  00000-0  13967-4 0  9991,2 55636  70.0004 267.7866 0004661 270.6494  89.4131 14.98330935 14522,6950.19,96.107,575.294,568.816,0.0
55636.0,STARLINK-5218,PAYLOAD,2023-05-20 18:00:48,14.98339011,0.0004667,70.0,266.103,270.1427,89.9197,0.00011862,1.323e-05,0.0,0 STARLINK-5218,1 55636U 23021J   23140.75056387  .00001323  00000-0  11862-3 0  9994,2 55636  70.0000 266.1030 0004667 270.1427  89.9197 14.98339011 14623,6950.165,96.106,575.274,568.786,0.0
55636.0,STARLINK-5218,PAYLOAD,2023-05-21 02:01:29,14.98333869,0.0004547,70.0007,265.2618,274.2968,85.7671,5.7128e-05,5.89e-06,0.0,0 STARLINK-5218,1 55636U 23021J   23141.08436797  .00000589  00000-0  57128-4 0  9997,2 55636  70.0007 265.2618 0004547 274.2968  85.7671 14.98333869 14675,6950.181,96.107,575.206,568.886,0.0
55636.0,STARLINK-5218,PAYLOAD,2023-05-21 11:38:18,14.98322755,0.0004745,69.9998,264.2514,271.8729,88.1886,-7.9399e-05,-1.04e-05,0.0,0 STARLINK-5218,1 55636U 23021J   23141.48493847 -.00001040  00000-0 -79399-4 0  9999,2 55636  69.9998 264.2514 0004745 271.8729  88.1886 14.98322755 15031,6950.215,96.107,575.378,568.782,0.0
55636.0,STARLINK-5218,PAYLOAD,2023-05-21 14:50:34,14.98323473,0.0004755,69.9997,263.9137,270.1348,89.9266,-7.7055e-05,-1.013e-05,0.0,0 STARLINK-5218,1 55636U 23021J   23141.61845821 -.00001013  00000-0 -77055-4 0  9994,2 55636  69.9997 263.9137 0004755 270.1348  89.9266 14.98323473 14754,6950.213,96.107,575.383,568.773,0.0
